0 SL-8 DEB
1 21404U 91009BT  13284.04304725  .00000033  00000-0  34784-3 0  2238
2 21404 073.9572 129.3404 0185094 300.8624 215.3691 12.41085332 22403
0 SL-8 DEB
1 21404U 91009BT  13286.28963148  .00000034  00000-0  35048-3 0  2242
2 21404 073.9569 126.3895 0185076 297.5632 172.8976 12.41086077 22681
0 SL-8 DEB
1 21404U 91009BT  13289.66527681 -.00000008  00000-0  60531-4 0  2254
2 21404 073.9569 121.9552 0185076 292.6051 134.9695 12.41086775 23103
0 SL-8 DEB
1 21404U 91009BT  13291.93413022 -.00000006  00000-0  78397-4 0  2268
2 21404 073.9572 118.9749 0185078 289.2724 192.0028 12.41086842 23382
0 SL-8 DEB
1 21404U 91009BT  13293.95656553  .00000026  00000-0  30160-3 0  2277
2 21404 073.9574 116.3182 0185106 286.3087 228.0566 12.41086757 23639
0 SL-8 DEB
1 21404U 91009BT  13295.96488606  .00000045  00000-0  42926-3 0  2287
2 21404 073.9574 113.6800 0185137 283.3570 201.0549 12.41086680 23888
